<?xml version="1.0" encoding="UTF-8"?>
<gpx version="1.1" creator="supplme.app"
  xmlns="http://www.topografix.com/GPX/1/1"
  xmlns:xsi="http://www.w3.org/2001/XMLSchema-instance"
  xsi:schemaLocation="http://www.topografix.com/GPX/1/1 http://www.topografix.com/GPX/1/1/gpx.xsd">
  <metadata>
    <name>Amazean by UTMB</name>
    <desc>Distance: 50 km | Elevation gain: 800 m | Profile: hilly | Surface: trail | Typical date: May | Amazon rainforest trail race near Manaus. Dense jungle terrain, extreme heat and humidity. Unique ecosystem with red-soil trails and river crossings.</desc>
    <link href="https://supplme.app"><text>Supplme</text></link>
  </metadata>
  <wpt lat="-3.119" lon="-60.0217">
    <ele>100</ele>
    <name>Amazean by UTMB — Start</name>
    <desc>Distance: 50 km | Elevation gain: 800 m | Profile: hilly | Surface: trail | Typical date: May | Amazon rainforest trail race near Manaus. Dense jungle terrain, extreme heat and humidity. Unique ecosystem with red-soil trails and river crossings.</desc>
    <sym>Flag</sym>
  </wpt>
</gpx>
