<?xml version="1.0" encoding="UTF-8"?>
<gpx version="1.1" creator="supplme.app"
  xmlns="http://www.topografix.com/GPX/1/1"
  xmlns:xsi="http://www.w3.org/2001/XMLSchema-instance"
  xsi:schemaLocation="http://www.topografix.com/GPX/1/1 http://www.topografix.com/GPX/1/1/gpx.xsd">
  <metadata>
    <name>Bariloche by UTMB</name>
    <desc>Distance: 100 km | Elevation gain: 5200 m | Profile: mountainous | Surface: trail | Typical date: November | Through the Patagonian Andes lakes district in Nahuel Huapi National Park. Stunning turquoise lakes, old-growth Valdivian temperate rainforest, and volcanic Andean peaks near Bariloche.</desc>
    <link href="https://supplme.app"><text>Supplme</text></link>
  </metadata>
  <wpt lat="-41.1335" lon="-71.3103">
    <ele>770</ele>
    <name>Bariloche by UTMB — Start</name>
    <desc>Distance: 100 km | Elevation gain: 5200 m | Profile: mountainous | Surface: trail | Typical date: November | Through the Patagonian Andes lakes district in Nahuel Huapi National Park. Stunning turquoise lakes, old-growth Valdivian temperate rainforest, and volcanic Andean peaks near Bariloche.</desc>
    <sym>Flag</sym>
  </wpt>
</gpx>
