<?xml version="1.0" encoding="UTF-8"?>
<gpx version="1.1" creator="supplme.app"
  xmlns="http://www.topografix.com/GPX/1/1"
  xmlns:xsi="http://www.w3.org/2001/XMLSchema-instance"
  xsi:schemaLocation="http://www.topografix.com/GPX/1/1 http://www.topografix.com/GPX/1/1/gpx.xsd">
  <metadata>
    <name>Bucovina by UTMB</name>
    <desc>Distance: 100 km | Elevation gain: 5000 m | Profile: mountainous | Surface: trail | Typical date: July | Through the Eastern Carpathian mountains of Romania&apos;s Bucovina region. Dense beech forests, glacial valleys, and UNESCO-listed painted monasteries nearby.</desc>
    <link href="https://supplme.app"><text>Supplme</text></link>
  </metadata>
  <wpt lat="47.5253" lon="25.5578">
    <ele>620</ele>
    <name>Bucovina by UTMB — Start</name>
    <desc>Distance: 100 km | Elevation gain: 5000 m | Profile: mountainous | Surface: trail | Typical date: July | Through the Eastern Carpathian mountains of Romania&apos;s Bucovina region. Dense beech forests, glacial valleys, and UNESCO-listed painted monasteries nearby.</desc>
    <sym>Flag</sym>
  </wpt>
</gpx>
