<?xml version="1.0" encoding="UTF-8"?>
<gpx version="1.1" creator="supplme.app"
  xmlns="http://www.topografix.com/GPX/1/1"
  xmlns:xsi="http://www.w3.org/2001/XMLSchema-instance"
  xsi:schemaLocation="http://www.topografix.com/GPX/1/1 http://www.topografix.com/GPX/1/1/gpx.xsd">
  <metadata>
    <name>Kagaspa by UTMB</name>
    <desc>Distance: 100 km | Elevation gain: 5000 m | Profile: mountainous | Surface: trail | Typical date: June | Through the Taebaek Mountains on South Korea&apos;s east coast near Gangneung. Dense Korean pine forest, granite ridgelines, and coastal views.</desc>
    <link href="https://supplme.app"><text>Supplme</text></link>
  </metadata>
  <wpt lat="37.7519" lon="128.8761">
    <ele>300</ele>
    <name>Kagaspa by UTMB — Start</name>
    <desc>Distance: 100 km | Elevation gain: 5000 m | Profile: mountainous | Surface: trail | Typical date: June | Through the Taebaek Mountains on South Korea&apos;s east coast near Gangneung. Dense Korean pine forest, granite ridgelines, and coastal views.</desc>
    <sym>Flag</sym>
  </wpt>
</gpx>
