<?xml version="1.0" encoding="UTF-8"?>
<gpx version="1.1" creator="supplme.app"
  xmlns="http://www.topografix.com/GPX/1/1"
  xmlns:xsi="http://www.w3.org/2001/XMLSchema-instance"
  xsi:schemaLocation="http://www.topografix.com/GPX/1/1 http://www.topografix.com/GPX/1/1/gpx.xsd">
  <metadata>
    <name>Mogan by UTMB</name>
    <desc>Distance: 80 km | Elevation gain: 4000 m | Profile: mountainous | Surface: trail | Typical date: April | Volcanic mountain trails in the Mogán valley of Gran Canaria. Ancient pine forests, dramatic ravines (barrancos), and volcanic crater landscapes.</desc>
    <link href="https://supplme.app"><text>Supplme</text></link>
  </metadata>
  <wpt lat="27.871" lon="-15.723">
    <ele>200</ele>
    <name>Mogan by UTMB — Start</name>
    <desc>Distance: 80 km | Elevation gain: 4000 m | Profile: mountainous | Surface: trail | Typical date: April | Volcanic mountain trails in the Mogán valley of Gran Canaria. Ancient pine forests, dramatic ravines (barrancos), and volcanic crater landscapes.</desc>
    <sym>Flag</sym>
  </wpt>
</gpx>
