<?xml version="1.0" encoding="UTF-8"?>
<gpx version="1.1" creator="supplme.app"
  xmlns="http://www.topografix.com/GPX/1/1"
  xmlns:xsi="http://www.w3.org/2001/XMLSchema-instance"
  xsi:schemaLocation="http://www.topografix.com/GPX/1/1 http://www.topografix.com/GPX/1/1/gpx.xsd">
  <metadata>
    <name>MUT by UTMB - 58K</name>
    <desc>Distance: 58 km | Elevation gain: 2400 m | Profile: hilly | Surface: trail | Typical date: May | 58K mid-distance through the fynbos and forest trails of the Outeniqua Mountains.</desc>
    <link href="https://supplme.app"><text>Supplme</text></link>
  </metadata>
  <wpt lat="-33.9636" lon="22.4617">
    <ele>200</ele>
    <name>MUT by UTMB - 58K — Start</name>
    <desc>Distance: 58 km | Elevation gain: 2400 m | Profile: hilly | Surface: trail | Typical date: May | 58K mid-distance through the fynbos and forest trails of the Outeniqua Mountains.</desc>
    <sym>Flag</sym>
  </wpt>
</gpx>
