<?xml version="1.0" encoding="UTF-8"?>
<gpx version="1.1" creator="supplme.app"
  xmlns="http://www.topografix.com/GPX/1/1"
  xmlns:xsi="http://www.w3.org/2001/XMLSchema-instance"
  xsi:schemaLocation="http://www.topografix.com/GPX/1/1 http://www.topografix.com/GPX/1/1/gpx.xsd">
  <metadata>
    <name>MUT by UTMB - 11K</name>
    <desc>Distance: 11 km | Elevation gain: 380 m | Profile: rolling | Surface: trail | Typical date: May | 11K fun run at the MUT festival. Open to all fitness levels along the Garden Route.</desc>
    <link href="https://supplme.app"><text>Supplme</text></link>
  </metadata>
  <wpt lat="-33.9636" lon="22.4617">
    <ele>200</ele>
    <name>MUT by UTMB - 11K — Start</name>
    <desc>Distance: 11 km | Elevation gain: 380 m | Profile: rolling | Surface: trail | Typical date: May | 11K fun run at the MUT festival. Open to all fitness levels along the Garden Route.</desc>
    <sym>Flag</sym>
  </wpt>
</gpx>
