<?xml version="1.0" encoding="UTF-8"?>
<gpx version="1.1" creator="supplme.app"
  xmlns="http://www.topografix.com/GPX/1/1"
  xmlns:xsi="http://www.w3.org/2001/XMLSchema-instance"
  xsi:schemaLocation="http://www.topografix.com/GPX/1/1 http://www.topografix.com/GPX/1/1/gpx.xsd">
  <metadata>
    <name>MUT by UTMB - 168K</name>
    <desc>Distance: 168 km | Elevation gain: 7000 m | Profile: extreme | Surface: trail | Typical date: May | Flagship 168K. Through the Outeniqua Mountains along the Garden Route. Fynbos vegetation and dramatic mountain passes.</desc>
    <link href="https://supplme.app"><text>Supplme</text></link>
  </metadata>
  <wpt lat="-33.9636" lon="22.4617">
    <ele>200</ele>
    <name>MUT by UTMB - 168K — Start</name>
    <desc>Distance: 168 km | Elevation gain: 7000 m | Profile: extreme | Surface: trail | Typical date: May | Flagship 168K. Through the Outeniqua Mountains along the Garden Route. Fynbos vegetation and dramatic mountain passes.</desc>
    <sym>Flag</sym>
  </wpt>
</gpx>
