<?xml version="1.0" encoding="UTF-8"?>
<gpx version="1.1" creator="supplme.app"
  xmlns="http://www.topografix.com/GPX/1/1"
  xmlns:xsi="http://www.w3.org/2001/XMLSchema-instance"
  xsi:schemaLocation="http://www.topografix.com/GPX/1/1 http://www.topografix.com/GPX/1/1/gpx.xsd">
  <metadata>
    <name>Mount Yun by UTMB</name>
    <desc>Distance: 100 km | Elevation gain: 4800 m | Profile: mountainous | Surface: trail | Typical date: October | Through Vietnam&apos;s Central Highlands jungle and mountain terrain. Ethnic minority villages, coffee plantations, and remote forest trails.</desc>
    <link href="https://supplme.app"><text>Supplme</text></link>
  </metadata>
  <wpt lat="14.3545" lon="108.0717">
    <ele>500</ele>
    <name>Mount Yun by UTMB — Start</name>
    <desc>Distance: 100 km | Elevation gain: 4800 m | Profile: mountainous | Surface: trail | Typical date: October | Through Vietnam&apos;s Central Highlands jungle and mountain terrain. Ethnic minority villages, coffee plantations, and remote forest trails.</desc>
    <sym>Flag</sym>
  </wpt>
</gpx>
