<?xml version="1.0" encoding="UTF-8"?>
<gpx version="1.1" creator="supplme.app"
  xmlns="http://www.topografix.com/GPX/1/1"
  xmlns:xsi="http://www.w3.org/2001/XMLSchema-instance"
  xsi:schemaLocation="http://www.topografix.com/GPX/1/1 http://www.topografix.com/GPX/1/1/gpx.xsd">
  <metadata>
    <name>MUT by UTMB - 100K</name>
    <desc>Distance: 100 km | Elevation gain: 4200 m | Profile: mountainous | Surface: trail | Typical date: May | 100K through the Outeniqua Mountains. Fynbos and forest trails of the Garden Route.</desc>
    <link href="https://supplme.app"><text>Supplme</text></link>
  </metadata>
  <wpt lat="-33.9636" lon="22.4617">
    <ele>200</ele>
    <name>MUT by UTMB - 100K — Start</name>
    <desc>Distance: 100 km | Elevation gain: 4200 m | Profile: mountainous | Surface: trail | Typical date: May | 100K through the Outeniqua Mountains. Fynbos and forest trails of the Garden Route.</desc>
    <sym>Flag</sym>
  </wpt>
</gpx>
