<?xml version="1.0" encoding="UTF-8"?>
<gpx version="1.1" creator="supplme.app"
  xmlns="http://www.topografix.com/GPX/1/1"
  xmlns:xsi="http://www.w3.org/2001/XMLSchema-instance"
  xsi:schemaLocation="http://www.topografix.com/GPX/1/1 http://www.topografix.com/GPX/1/1/gpx.xsd">
  <metadata>
    <name>Oman by UTMB</name>
    <desc>Distance: 100 km | Elevation gain: 4500 m | Profile: mountainous | Surface: trail | Typical date: December | Through the Al Hajar Mountains (Jebel Akhdar area). Dramatic wadi canyons, terraced falaj irrigation villages, and arid limestone ridgelines. Dry desert mountain conditions.</desc>
    <link href="https://supplme.app"><text>Supplme</text></link>
  </metadata>
  <wpt lat="22.9333" lon="57.5333">
    <ele>700</ele>
    <name>Oman by UTMB — Start</name>
    <desc>Distance: 100 km | Elevation gain: 4500 m | Profile: mountainous | Surface: trail | Typical date: December | Through the Al Hajar Mountains (Jebel Akhdar area). Dramatic wadi canyons, terraced falaj irrigation villages, and arid limestone ridgelines. Dry desert mountain conditions.</desc>
    <sym>Flag</sym>
  </wpt>
</gpx>
