<?xml version="1.0" encoding="UTF-8"?>
<gpx version="1.1" creator="supplme.app"
  xmlns="http://www.topografix.com/GPX/1/1"
  xmlns:xsi="http://www.w3.org/2001/XMLSchema-instance"
  xsi:schemaLocation="http://www.topografix.com/GPX/1/1 http://www.topografix.com/GPX/1/1/gpx.xsd">
  <metadata>
    <name>Pacific Trails by UTMB</name>
    <desc>Distance: 100 km | Elevation gain: 5800 m | Profile: mountainous | Surface: trail | Typical date: November | Coastal mountain trails of the California Pacific Coast. Marin Headlands, redwood forest, and dramatic Pacific Ocean views. Technical singletrack on the Marin ridgeline.</desc>
    <link href="https://supplme.app"><text>Supplme</text></link>
  </metadata>
  <wpt lat="37.9735" lon="-122.5311">
    <ele>100</ele>
    <name>Pacific Trails by UTMB — Start</name>
    <desc>Distance: 100 km | Elevation gain: 5800 m | Profile: mountainous | Surface: trail | Typical date: November | Coastal mountain trails of the California Pacific Coast. Marin Headlands, redwood forest, and dramatic Pacific Ocean views. Technical singletrack on the Marin ridgeline.</desc>
    <sym>Flag</sym>
  </wpt>
</gpx>
