<?xml version="1.0" encoding="UTF-8"?>
<gpx version="1.1" creator="supplme.app"
  xmlns="http://www.topografix.com/GPX/1/1"
  xmlns:xsi="http://www.w3.org/2001/XMLSchema-instance"
  xsi:schemaLocation="http://www.topografix.com/GPX/1/1 http://www.topografix.com/GPX/1/1/gpx.xsd">
  <metadata>
    <name>Trail 100 Andorra by UTMB - 50K</name>
    <desc>Distance: 50 km | Elevation gain: 3200 m | Profile: mountainous | Surface: trail | Typical date: June | 50K Pyrenean mountain trail at altitude through the heart of Andorra.</desc>
    <link href="https://supplme.app"><text>Supplme</text></link>
  </metadata>
  <wpt lat="42.5556" lon="1.5333">
    <ele>1300</ele>
    <name>Trail 100 Andorra by UTMB - 50K — Start</name>
    <desc>Distance: 50 km | Elevation gain: 3200 m | Profile: mountainous | Surface: trail | Typical date: June | 50K Pyrenean mountain trail at altitude through the heart of Andorra.</desc>
    <sym>Flag</sym>
  </wpt>
</gpx>
