<?xml version="1.0" encoding="UTF-8"?>
<gpx version="1.1" creator="supplme.app"
  xmlns="http://www.topografix.com/GPX/1/1"
  xmlns:xsi="http://www.w3.org/2001/XMLSchema-instance"
  xsi:schemaLocation="http://www.topografix.com/GPX/1/1 http://www.topografix.com/GPX/1/1/gpx.xsd">
  <metadata>
    <name>Trail 100 Andorra by UTMB - 105K</name>
    <desc>Distance: 105 km | Elevation gain: 7000 m | Profile: extreme | Surface: trail | Typical date: June | Flagship 105K. High-altitude Pyrenean race through Andorra. Consistently above 2000m with steep mountain passes.</desc>
    <link href="https://supplme.app"><text>Supplme</text></link>
  </metadata>
  <wpt lat="42.5556" lon="1.5333">
    <ele>1300</ele>
    <name>Trail 100 Andorra by UTMB - 105K — Start</name>
    <desc>Distance: 105 km | Elevation gain: 7000 m | Profile: extreme | Surface: trail | Typical date: June | Flagship 105K. High-altitude Pyrenean race through Andorra. Consistently above 2000m with steep mountain passes.</desc>
    <sym>Flag</sym>
  </wpt>
</gpx>
