<?xml version="1.0" encoding="UTF-8"?>
<gpx version="1.1" creator="supplme.app"
  xmlns="http://www.topografix.com/GPX/1/1"
  xmlns:xsi="http://www.w3.org/2001/XMLSchema-instance"
  xsi:schemaLocation="http://www.topografix.com/GPX/1/1 http://www.topografix.com/GPX/1/1/gpx.xsd">
  <metadata>
    <name>Rando 28km</name>
    <desc>Distance: 28 km | Elevation gain: 1050 m | Profile: hilly | Surface: trail | Typical date: June | Non-competitive 28km randonnée through the pilgrimage trails of the Auvergne. Ideal for hikers and walkers wanting to experience the Saint-Jacques atmosphere without racing.</desc>
    <link href="https://supplme.app"><text>Supplme</text></link>
  </metadata>
  <wpt lat="45.0437" lon="3.8849">
    <ele>630</ele>
    <name>Rando 28km — Start</name>
    <desc>Distance: 28 km | Elevation gain: 1050 m | Profile: hilly | Surface: trail | Typical date: June | Non-competitive 28km randonnée through the pilgrimage trails of the Auvergne. Ideal for hikers and walkers wanting to experience the Saint-Jacques atmosphere without racing.</desc>
    <sym>Flag</sym>
  </wpt>
</gpx>
