<?xml version="1.0" encoding="UTF-8"?>
<gpx version="1.1" creator="supplme.app"
  xmlns="http://www.topografix.com/GPX/1/1"
  xmlns:xsi="http://www.w3.org/2001/XMLSchema-instance"
  xsi:schemaLocation="http://www.topografix.com/GPX/1/1 http://www.topografix.com/GPX/1/1/gpx.xsd">
  <metadata>
    <name>Trail 100 Andorra by UTMB - 21K</name>
    <desc>Distance: 21 km | Elevation gain: 1300 m | Profile: hilly | Surface: trail | Typical date: June | Half-marathon distance trail through Andorra&apos;s alpine scenery.</desc>
    <link href="https://supplme.app"><text>Supplme</text></link>
  </metadata>
  <wpt lat="42.5556" lon="1.5333">
    <ele>1300</ele>
    <name>Trail 100 Andorra by UTMB - 21K — Start</name>
    <desc>Distance: 21 km | Elevation gain: 1300 m | Profile: hilly | Surface: trail | Typical date: June | Half-marathon distance trail through Andorra&apos;s alpine scenery.</desc>
    <sym>Flag</sym>
  </wpt>
</gpx>
