<?xml version="1.0" encoding="UTF-8"?>
<gpx version="1.1" creator="supplme.app"
  xmlns="http://www.topografix.com/GPX/1/1"
  xmlns:xsi="http://www.w3.org/2001/XMLSchema-instance"
  xsi:schemaLocation="http://www.topografix.com/GPX/1/1 http://www.topografix.com/GPX/1/1/gpx.xsd">
  <metadata>
    <name>Lake Toba by UTMB - 11K</name>
    <desc>Distance: 10.9 km | Elevation gain: 450 m | Profile: rolling | Surface: trail | Typical date: June | 10.9K fun run at Lake Toba festival. Open to all levels on Samosir Island trail.</desc>
    <link href="https://supplme.app"><text>Supplme</text></link>
  </metadata>
  <wpt lat="2.615" lon="98.86">
    <ele>905</ele>
    <name>Lake Toba by UTMB - 11K — Start</name>
    <desc>Distance: 10.9 km | Elevation gain: 450 m | Profile: rolling | Surface: trail | Typical date: June | 10.9K fun run at Lake Toba festival. Open to all levels on Samosir Island trail.</desc>
    <sym>Flag</sym>
  </wpt>
</gpx>
