<?xml version="1.0" encoding="UTF-8"?>
<gpx version="1.1" creator="supplme.app"
  xmlns="http://www.topografix.com/GPX/1/1"
  xmlns:xsi="http://www.w3.org/2001/XMLSchema-instance"
  xsi:schemaLocation="http://www.topografix.com/GPX/1/1 http://www.topografix.com/GPX/1/1/gpx.xsd">
  <metadata>
    <name>Lake Toba by UTMB - 100K</name>
    <desc>Distance: 101.1 km | Elevation gain: 4500 m | Profile: mountainous | Surface: trail | Typical date: June | Flagship 100K. Around the world&apos;s largest volcanic caldera lake. Trails through Batak highland villages, jungle, and volcanic ridgelines above Lake Toba at 905m altitude. Hot and humid tropical conditions.</desc>
    <link href="https://supplme.app"><text>Supplme</text></link>
  </metadata>
  <wpt lat="2.615" lon="98.86">
    <ele>905</ele>
    <name>Lake Toba by UTMB - 100K — Start</name>
    <desc>Distance: 101.1 km | Elevation gain: 4500 m | Profile: mountainous | Surface: trail | Typical date: June | Flagship 100K. Around the world&apos;s largest volcanic caldera lake. Trails through Batak highland villages, jungle, and volcanic ridgelines above Lake Toba at 905m altitude. Hot and humid tropical conditions.</desc>
    <sym>Flag</sym>
  </wpt>
</gpx>
