<?xml version="1.0" encoding="UTF-8"?>
<gpx version="1.1" creator="supplme.app"
  xmlns="http://www.topografix.com/GPX/1/1"
  xmlns:xsi="http://www.w3.org/2001/XMLSchema-instance"
  xsi:schemaLocation="http://www.topografix.com/GPX/1/1 http://www.topografix.com/GPX/1/1/gpx.xsd">
  <metadata>
    <name>UTMB Malaysia</name>
    <desc>Distance: 100 km | Elevation gain: 5000 m | Profile: mountainous | Surface: trail | Typical date: September | Tropical mountain trails through Malaysian jungle. Dense rainforest, volcanic ridges, and high humidity throughout. Demanding heat and technical jungle terrain.</desc>
    <link href="https://supplme.app"><text>Supplme</text></link>
  </metadata>
  <wpt lat="4.2105" lon="101.9758">
    <ele>200</ele>
    <name>UTMB Malaysia — Start</name>
    <desc>Distance: 100 km | Elevation gain: 5000 m | Profile: mountainous | Surface: trail | Typical date: September | Tropical mountain trails through Malaysian jungle. Dense rainforest, volcanic ridges, and high humidity throughout. Demanding heat and technical jungle terrain.</desc>
    <sym>Flag</sym>
  </wpt>
</gpx>
