<?xml version="1.0" encoding="UTF-8"?>
<gpx version="1.1" creator="supplme.app"
  xmlns="http://www.topografix.com/GPX/1/1"
  xmlns:xsi="http://www.w3.org/2001/XMLSchema-instance"
  xsi:schemaLocation="http://www.topografix.com/GPX/1/1 http://www.topografix.com/GPX/1/1/gpx.xsd">
  <metadata>
    <name>Lake Toba by UTMB - 28K</name>
    <desc>Distance: 28 km | Elevation gain: 1200 m | Profile: hilly | Surface: trail | Typical date: June | 28K entry-level distance at Lake Toba. Accessible trail experience on the Batak highlands of Samosir Island.</desc>
    <link href="https://supplme.app"><text>Supplme</text></link>
  </metadata>
  <wpt lat="2.615" lon="98.86">
    <ele>905</ele>
    <name>Lake Toba by UTMB - 28K — Start</name>
    <desc>Distance: 28 km | Elevation gain: 1200 m | Profile: hilly | Surface: trail | Typical date: June | 28K entry-level distance at Lake Toba. Accessible trail experience on the Batak highlands of Samosir Island.</desc>
    <sym>Flag</sym>
  </wpt>
</gpx>
